      2.10          N: GNSS NAV DATA                        RINEX VERSION / TYPE
fic2rin                                 02/10/2023 00:17:39 PGM / RUN BY / DATE
                                                            END OF HEADER
10 23  2  9  8  0  0.0 -.239415094256D-04 -.159161572810D-11  .000000000000D+00
     .600000000000D+02 -.631250000000D+01  .455590405741D-08 -.294301974790D+01
    -.379979610443D-06  .844231911469D-02  .321120023727D-05  .515368264961D+04
     .374400000000D+06 -.428408384323D-07 -.983674894008D+00 -.169500708580D-06
     .977017793124D+00  .326781250000D+03 -.244527722622D+01 -.818748389871D-08
     .450018745087D-10  .100000000000D+01  .224800000000D+04  .000000000000D+00
     .240000000000D+01  .000000000000D+00  .232830643654D-08  .600000000000D+02
     .367200000000D+06  .400000000000D+01
8  23  2  9  8  0  0.0 -.107650179416D-03 -.181898940355D-11  .000000000000D+00
     .760000000000D+02 -.305312500000D+02  .446197157331D-08  .137805142487D+01
    -.149197876453D-05  .829767493997D-02  .919401645660D-05  .515365611839D+04
     .374400000000D+06 -.353902578354D-07 -.310129050399D+01  .726431608200D-07
     .960491236841D+00  .202437500000D+03  .210844089291D+00 -.804712090917D-08
    -.461804950316D-09  .100000000000D+01  .224800000000D+04  .000000000000D+00
     .240000000000D+01  .000000000000D+00  .512227416039D-08  .760000000000D+02
     .367200000000D+06  .400000000000D+01
7  23  2  9  8  0  0.0  .244295224547D-03 -.693489710102D-11  .000000000000D+00
     .730000000000D+02  .414062500000D+02  .459483425043D-08 -.145133502307D+01
     .211223959923D-05  .167007730342D-01  .946596264839D-05  .515359497833D+04
     .374400000000D+06  .428408384323D-06  .111568390211D+01  .223517417908D-07
     .950345044154D+00  .188875000000D+03 -.222588946713D+01 -.794675958586D-08
     .293583657509D-09  .100000000000D+01  .224800000000D+04  .000000000000D+00
     .240000000000D+01  .000000000000D+00 -.111758708954D-07  .730000000000D+02
     .367200000000D+06  .400000000000D+01
4  23  2  9  8  0  0.0 -.313385389745D-04  .807176547823D-11  .000000000000D+00
     .194000000000D+03 -.790625000000D+02  .440232623170D-08  .933460672738D+00
    -.402703881264D-05  .229877256788D-02  .918656587601D-05  .515371873093D+04
     .374400000000D+06 -.186264514923D-08  .100124066341D+00 -.223517417908D-07
     .962815019304D+00  .199937500000D+03 -.304839924504D+01 -.804319217410D-08
    -.313584490624D-09  .100000000000D+01  .224800000000D+04  .000000000000D+00
     .240000000000D+01  .000000000000D+00 -.465661287308D-08  .450000000000D+03
     .367200000000D+06  .400000000000D+01
9  23  2  9  8  0  0.0 -.221521593630D-03  .693489710102D-11  .000000000000D+00
     .850000000000D+02 -.799375000000D+02  .452054544172D-08  .170828627305D+01
    -.425428152084D-05  .250752235297D-02  .875629484653D-05  .515368107033D+04
     .374400000000D+06 -.130385160446D-07  .443173886714D-01 -.763684511185D-07
     .956025108866D+00  .203906250000D+03  .196386905386D+01 -.808712257540D-08
    -.320727645308D-09  .100000000000D+01  .224800000000D+04  .000000000000D+00
     .240000000000D+01  .000000000000D+00  .139698386192D-08  .850000000000D+02
     .367200000000D+06  .400000000000D+01
31 23  2  9  8  0  0.0 -.208730809391D-03 -.102318153949D-11  .000000000000D+00
     .120000000000D+02  .368437500000D+02  .452840291187D-08 -.204337033624D+01
     .179372727871D-05  .107817589305D-01  .102445483208D-04  .515365734100D+04
     .374400000000D+06  .856816768646D-07  .113521467331D+01 -.121071934700D-06
     .954442497755D+00  .178406250000D+03  .499482013202D+00 -.794247369305D-08
     .477162732886D-09  .100000000000D+01  .224800000000D+04  .000000000000D+00
     .240000000000D+01  .000000000000D+00 -.135041773319D-07  .120000000000D+02
     .367200000000D+06  .400000000000D+01
27 23  2  9  8  0  0.0  .106673687696D-03 -.909494701773D-11  .000000000000D+00
     .100000000000D+02 -.310312500000D+02  .427303513192D-08  .138243527394D+01
    -.159814953804D-05  .112993987277D-01  .982172787189D-05  .515366556931D+04
     .374400000000D+06 -.108033418655D-06 -.307887121713D+01  .633299350739D-07
     .969351830286D+00  .196562500000D+03  .696376207230D+00 -.804426364730D-08
    -.477162732886D-09  .100000000000D+01  .224800000000D+04  .000000000000D+00
     .240000000000D+01  .000000000000D+00  .186264514923D-08  .100000000000D+02
     .367200000000D+06  .400000000000D+01
21 23  2  9  8  0  0.0  .153895467520D-03  .227373675443D-12  .000000000000D+00
     .130000000000D+02  .500000000000D+02  .446911472800D-08  .131710418766D+01
     .247731804848D-05  .248683643294D-01  .864826142788D-05  .515365313339D+04
     .374400000000D+06  .596046447754D-06 -.211365283115D+01 -.782310962677D-07
     .961410471657D+00  .207437500000D+03 -.819394846421D+00 -.791532970525D-08
     .156792245312D-09  .100000000000D+01  .224800000000D+04  .000000000000D+00
     .240000000000D+01  .000000000000D+00 -.102445483208D-07  .130000000000D+02
     .367200000000D+06  .400000000000D+01
20 23  2  9  8  0  0.0  .451834872365D-03 -.238742359215D-11  .000000000000D+00
     .200000000000D+02  .201562500000D+02  .536379485216D-08  .394445358232D-01
     .112317502499D-05  .447293638717D-02  .274553894997D-05  .515373989105D+04
     .374400000000D+06  .782310962677D-07 -.114675822048D+01 -.372529029846D-08
     .946680348054D+00  .320062500000D+03 -.292112703694D+01 -.872214902680D-08
     .152863510236D-09  .100000000000D+01  .224800000000D+04  .000000000000D+00
     .340000000000D+01  .000000000000D+00 -.838190317154D-08  .200000000000D+02
     .367200000000D+06  .400000000000D+01
26 23  2  9  8  0  0.0  .241333618760D-03  .341060513165D-12  .000000000000D+00
     .100000000000D+02  .181875000000D+02  .542808324431D-08 -.312813633957D+01
     .916421413422D-06  .784601748455D-02  .443495810032D-05  .515363192749D+04
     .374400000000D+06 -.782310962677D-07  .209576934667D+01 -.596046447754D-07
     .934502210431D+00  .282062500000D+03  .445804488449D+00 -.854249868650D-08
     .803604901941D-10  .100000000000D+01  .224800000000D+04  .000000000000D+00
     .240000000000D+01  .000000000000D+00  .698491930962D-08  .100000000000D+02
     .367200000000D+06  .400000000000D+01
15 23  2  9  8  0  0.0  .118897296488D-04  .329691829393D-11  .000000000000D+00
     .730000000000D+02 -.900000000000D+02  .533379360248D-08  .398352518376D+00
    -.443309545517D-05  .147480365122D-01  .824779272079D-05  .515367676163D+04
     .374400000000D+06 -.178813934326D-06 -.711767152873D-01  .987201929092D-07
     .932197940369D+00  .207718750000D+03  .117714292365D+01 -.873643533617D-08
    -.458590530708D-09  .100000000000D+01  .224800000000D+04  .000000000000D+00
     .240000000000D+01  .000000000000D+00 -.107102096081D-07  .730000000000D+02
     .367200000000D+06  .400000000000D+01
32 23  2  9  8  0  0.0 -.390628818423D-03 -.117097442853D-10  .000000000000D+00
     .260000000000D+02 -.929062500000D+02  .444161358246D-08  .205947772700D+01
    -.491552054882D-05  .658478913829D-02  .933371484280D-05  .515371357918D+04
     .374400000000D+06 -.106170773506D-06  .570245101569D-01 -.122934579849D-06
     .959705344083D+00  .201187500000D+03 -.225902735141D+01 -.805640701026D-08
    -.351443210449D-09  .100000000000D+01  .224800000000D+04  .000000000000D+00
     .240000000000D+01  .000000000000D+00  .465661287308D-09  .260000000000D+02
     .367200000000D+06  .400000000000D+01
25 23  2  9  8  0  0.0  .418581999838D-03  .329691829393D-11  .000000000000D+00
     .280000000000D+02  .684375000000D+01  .498342186524D-08 -.233834190546D+01
     .348314642906D-06  .111403578194D-01  .411085784435D-05  .515377208138D+04
     .374400000000D+06  .875443220139D-07  .214946056141D+01 -.912696123123D-07
     .953738550353D+00  .295156250000D+03  .102872487548D+01 -.825034365993D-08
     .925038531568D-10  .100000000000D+01  .224800000000D+04  .000000000000D+00
     .240000000000D+01  .000000000000D+00  .558793544769D-08  .280000000000D+02
     .367200000000D+06  .400000000000D+01
29 23  2  9  8  0  0.0 -.585128553212D-03 -.216004991671D-11  .000000000000D+00
     .620000000000D+02 -.275000000000D+02  .396873674239D-08  .139730504332D+01
    -.139512121677D-05  .218141369987D-02  .106301158667D-04  .515358536339D+04
     .374400000000D+06  .838190317154D-07 -.300015610985D+01  .186264514923D-07
     .978209028298D+00  .183062500000D+03  .240100048911D+01 -.775210862073D-08
    -.358943522867D-09  .100000000000D+01  .224800000000D+04  .000000000000D+00
     .240000000000D+01  .000000000000D+00 -.102445483208D-07  .620000000000D+02
     .367200000000D+06  .400000000000D+01
24 23  2  9  8  0  0.0 -.661383382976D-04 -.161435309565D-10  .000000000000D+00
     .950000000000D+02  .373437500000D+02  .511307012275D-08 -.576542802979D+00
     .200979411602D-05  .137122689048D-01  .106506049633D-04  .515366656685D+04
     .374400000000D+06  .223517417908D-07  .102682917649D+01  .244006514549D-06
     .933979593188D+00  .159562500000D+03  .883750385785D+00 -.851428322550D-08
     .290012080167D-09  .100000000000D+01  .224800000000D+04  .000000000000D+00
     .240000000000D+01  .000000000000D+00  .232830643654D-08  .950000000000D+02
     .367200000000D+06  .400000000000D+01
30 23  2  9  8  0  0.0 -.530875287950D-03  .125055521494D-11  .000000000000D+00
     .910000000000D+02  .462812500000D+02  .494806324955D-08 -.159721138713D+01
     .220723450184D-05  .609991338570D-02  .950507819653D-05  .515364253044D+04
     .374400000000D+06  .111758708954D-07  .112340696703D+01 -.143423676491D-06
     .935469664489D+00  .181718750000D+03 -.265523888332D+01 -.813712465819D-08
     .354657630057D-09  .100000000000D+01  .224800000000D+04  .000000000000D+00
     .240000000000D+01  .000000000000D+00  .372529029846D-08  .910000000000D+02
     .367200000000D+06  .400000000000D+01
